{
  "links" : {
    "next" : "https://api.nasa.gov/neo/rest/v1/feed?start_date=2015-08-23&end_date=2015-08-23&detailed=true&api_key=t0TVs3DtDT2H8Oy2Zy8m2eVrNsAVKAexjcZXUckd",
    "prev" : "https://api.nasa.gov/neo/rest/v1/feed?start_date=2015-08-21&end_date=2015-08-21&detailed=true&api_key=t0TVs3DtDT2H8Oy2Zy8m2eVrNsAVKAexjcZXUckd",
    "self" : "https://api.nasa.gov/neo/rest/v1/feed?start_date=2015-08-22&end_date=2015-08-22&detailed=true&api_key=t0TVs3DtDT2H8Oy2Zy8m2eVrNsAVKAexjcZXUckd"
  },
  "element_count" : 11,
  "near_earth_objects" : {
    "2015-08-22" : [ {
      "links" : {
        "self" : "https://api.nasa.gov/neo/rest/v1/neo/3338519?api_key=t0TVs3DtDT2H8Oy2Zy8m2eVrNsAVKAexjcZXUckd"
      },
      "neo_reference_id" : "3338519",
      "name" : "(2006 QB31)",
      "nasa_jpl_url" : "http://ssd.jpl.nasa.gov/sbdb.cgi?sstr=3338519",
      "absolute_magnitude_h" : 21.0,
      "estimated_diameter" : {
        "kilometers" : {
          "estimated_diameter_min" : 0.1677084622,
          "estimated_diameter_max" : 0.3750075218
        },
        "meters" : {
          "estimated_diameter_min" : 167.7084621628,
          "estimated_diameter_max" : 375.0075217981
        },
        "miles" : {
          "estimated_diameter_min" : 0.1042091748,
          "estimated_diameter_max" : 0.2330187988
        },
        "feet" : {
          "estimated_diameter_min" : 550.2246310023,
          "estimated_diameter_max" : 1230.3396778159
        }
      },
      "is_potentially_hazardous_asteroid" : false,
      "close_approach_data" : [ {
        "close_approach_date" : "2015-08-22",
        "epoch_date_close_approach" : 1440226800000,
        "relative_velocity" : {
          "kilometers_per_second" : "15.8112927982",
          "kilometers_per_hour" : "56920.6540735049",
          "miles_per_hour" : "35368.2808602842"
        },
        "miss_distance" : {
          "astronomical" : "0.3922063724",
          "lunar" : "152.5682830811",
          "kilometers" : "58673240",
          "miles" : "36457860"
        },
        "orbiting_body" : "Earth"
      } ],
      "orbital_data" : {
        "orbit_id" : "15",
        "orbit_determination_date" : "2017-04-06 09:08:17",
        "orbit_uncertainty" : "6",
        "minimum_orbit_intersection" : ".0996334",
        "jupiter_tisserand_invariant" : "5.104",
        "epoch_osculation" : "2458000.5",
        "eccentricity" : ".6118028720268616",
        "semi_major_axis" : "1.177029629808453",
        "inclination" : "24.71185533680196",
        "ascending_node_longitude" : "341.0100552265086",
        "orbital_period" : "466.4225299773009",
        "perihelion_distance" : ".4569195218309278",
        "perihelion_argument" : "228.4806784726656",
        "aphelion_distance" : "1.897139737785978",
        "perihelion_time" : "2458107.510673327767",
        "mean_anomaly" : "277.4056999350546",
        "mean_motion" : ".7718323555629267",
        "equinox" : "J2000"
      }
    }, {
      "links" : {
        "self" : "https://api.nasa.gov/neo/rest/v1/neo/3363697?api_key=t0TVs3DtDT2H8Oy2Zy8m2eVrNsAVKAexjcZXUckd"
      },
      "neo_reference_id" : "3363697",
      "name" : "(2006 XP4)",
      "nasa_jpl_url" : "http://ssd.jpl.nasa.gov/sbdb.cgi?sstr=3363697",
      "absolute_magnitude_h" : 23.9,
      "estimated_diameter" : {
        "kilometers" : {
          "estimated_diameter_min" : 0.04411182,
          "estimated_diameter_max" : 0.0986370281
        },
        "meters" : {
          "estimated_diameter_min" : 44.1118199997,
          "estimated_diameter_max" : 98.6370281305
        },
        "miles" : {
          "estimated_diameter_min" : 0.0274098057,
          "estimated_diameter_max" : 0.0612901888
        },
        "feet" : {
          "estimated_diameter_min" : 144.7238235278,
          "estimated_diameter_max" : 323.6123073718
        }
      },
      "is_potentially_hazardous_asteroid" : false,
      "close_approach_data" : [ {
        "close_approach_date" : "2015-08-22",
        "epoch_date_close_approach" : 1440226800000,
        "relative_velocity" : {
          "kilometers_per_second" : "7.9053571481",
          "kilometers_per_hour" : "28459.2857333086",
          "miles_per_hour" : "17683.4934046772"
        },
        "miss_distance" : {
          "astronomical" : "0.2845824012",
          "lunar" : "110.7025527954",
          "kilometers" : "42572924",
          "miles" : "26453588"
        },
        "orbiting_body" : "Earth"
      } ],
      "orbital_data" : {
        "orbit_id" : "29",
        "orbit_determination_date" : "2017-04-06 09:07:21",
        "orbit_uncertainty" : "0",
        "minimum_orbit_intersection" : ".00422625",
        "jupiter_tisserand_invariant" : "6.762",
        "epoch_osculation" : "2458000.5",
        "eccentricity" : ".2147618645080877",
        "semi_major_axis" : ".872678146571169",
        "inclination" : ".5128147726831948",
        "ascending_node_longitude" : "295.0422151854324",
        "orbital_period" : "297.7690653526021",
        "perihelion_distance" : ".6852601606980825",
        "perihelion_argument" : "345.1071886134371",
        "aphelion_distance" : "1.060096132444256",
        "perihelion_time" : "2458120.359373961013",
        "mean_anomaly" : "215.0911439545623",
        "mean_motion" : "1.208990596701868",
        "equinox" : "J2000"
      }
    }, {
      "links" : {
        "self" : "https://api.nasa.gov/neo/rest/v1/neo/3468488?api_key=t0TVs3DtDT2H8Oy2Zy8m2eVrNsAVKAexjcZXUckd"
      },
      "neo_reference_id" : "3468488",
      "name" : "(2009 SN103)",
      "nasa_jpl_url" : "http://ssd.jpl.nasa.gov/sbdb.cgi?sstr=3468488",
      "absolute_magnitude_h" : 27.6,
      "estimated_diameter" : {
        "kilometers" : {
          "estimated_diameter_min" : 0.0080270317,
          "estimated_diameter_max" : 0.0179489885
        },
        "meters" : {
          "estimated_diameter_min" : 8.0270316728,
          "estimated_diameter_max" : 17.948988478
        },
        "miles" : {
          "estimated_diameter_min" : 0.0049877647,
          "estimated_diameter_max" : 0.0111529809
        },
        "feet" : {
          "estimated_diameter_min" : 26.3354065935,
          "estimated_diameter_max" : 58.8877593581
        }
      },
      "is_potentially_hazardous_asteroid" : false,
      "close_approach_data" : [ {
        "close_approach_date" : "2015-08-22",
        "epoch_date_close_approach" : 1440226800000,
        "relative_velocity" : {
          "kilometers_per_second" : "19.1869650836",
          "kilometers_per_hour" : "69073.0743009064",
          "miles_per_hour" : "42919.3221954715"
        },
        "miss_distance" : {
          "astronomical" : "0.4713376717",
          "lunar" : "183.3503570557",
          "kilometers" : "70511112",
          "miles" : "43813576"
        },
        "orbiting_body" : "Earth"
      } ],
      "orbital_data" : {
        "orbit_id" : "11",
        "orbit_determination_date" : "2017-04-06 08:59:50",
        "orbit_uncertainty" : "5",
        "minimum_orbit_intersection" : ".000163588",
        "jupiter_tisserand_invariant" : "4.968",
        "epoch_osculation" : "2458000.5",
        "eccentricity" : ".2654163694125931",
        "semi_major_axis" : "1.298852784788349",
        "inclination" : "3.594220117197292",
        "ascending_node_longitude" : "5.646045710798136",
        "orbital_period" : "540.6775306408855",
        "perihelion_distance" : ".9541159942483891",
        "perihelion_argument" : "39.46856059087835",
        "aphelion_distance" : "1.643589575328308",
        "perihelion_time" : "2457841.639691895810",
        "mean_anomaly" : "105.7741586740609",
        "mean_motion" : ".6658312572621214",
        "equinox" : "J2000"
      }
    } ]
  }
}